ISS (ZARYA)             
1 25544U 98067A   26038.50283897  .00012054  00000+0  23050-3 0  9995
2 25544  51.6315 221.5822 0011000  74.6214 285.5989 15.48462076551652
CSS (TIANHE)            
1 48274U 21035A   26038.37011297  .00025203  00000+0  31398-3 0  9993
2 48274  41.4682  32.4562 0005154  20.8908 339.2140 15.59318584272873
ISS (NAUKA)             
1 49044U 21066A   26038.50283897  .00012054  00000+0  23050-3 0  9991
2 49044  51.6315 221.5822 0011000  74.6214 285.5989 15.48462076230444
CSS (WENTIAN)           
1 53239U 22085A   26038.37011297  .00025203  00000+0  31398-3 0  9996
2 53239  41.4682  32.4562 0005154  20.8908 339.2140 15.59318584173847
CSS (MENGTIAN)          
1 54216U 22143A   26038.37011297  .00025203  00000+0  31398-3 0  9997
2 54216  41.4682  32.4562 0005154  20.8908 339.2140 15.59318584158644
PROGRESS-MS 31          
1 64751U 25146A   26038.50283897  .00012054  00000+0  23050-3 0  9996
2 64751  51.6315 221.5822 0011000  74.6214 285.5989 15.48462076  6751
TIANZHOU-9              
1 64786U 25149A   26038.37011297  .00025203  00000+0  31398-3 0  9999
2 64786  41.4682  32.4562 0005154  20.8908 339.2140 15.59318584255308
DRAGON CRS-33           
1 65304U 25186A   26038.50283897  .00012054  00000+0  23050-3 0  9995
2 65304  51.6315 221.5822 0011000  74.6214 285.5989 15.48462076   110
PROGRESS-MS 32          
1 65586U 25204A   26038.50283897  .00012054  00000+0  23050-3 0  9998
2 65586  51.6315 221.5822 0011000  74.6214 285.5989 15.48462076   279
CYGNUS NG-23            
1 65616U 25208A   26038.50283897  .00012054  00000+0  23050-3 0  9996
2 65616  51.6315 221.5822 0011000  74.6214 285.5989 15.48462076   228
ISS OBJECT XK           
1 65731U 98067XK  26038.64945697  .00291158  00000+0  12353-2 0  9992
2 65731  51.6229 205.2613 0003586 264.8337  95.2257 15.83956581 22109
