CCSDS_OMM_VERS = 2.0
CREATION_DATE  = 
ORIGINATOR     = 

OBJECT_NAME    = ISS (ZARYA)
OBJECT_ID      = 1998-067A
CENTER_NAME    = EARTH
REF_FRAME      = TEME
TIME_SYSTEM    = UTC
MEAN_ELEMENT_THEORY = SGP/SGP4

EPOCH          = 2026-02-07T12:04:05.287008
MEAN_MOTION    = 15.48462076
ECCENTRICITY   = .00110001
INCLINATION    = 51.6315
RA_OF_ASC_NODE = 221.5822
ARG_OF_PERICENTER = 74.6214
MEAN_ANOMALY   = 285.5989

EPHEMERIS_TYPE = 0
CLASSIFICATION_TYPE = U
NORAD_CAT_ID   = 25544
ELEMENT_SET_NO = 999
REV_AT_EPOCH   = 55165
BSTAR          = .2304974E-3
MEAN_MOTION_DOT = .12054E-3
MEAN_MOTION_DDOT = 0

CCSDS_OMM_VERS = 2.0
CREATION_DATE  = 
ORIGINATOR     = 

OBJECT_NAME    = CSS (TIANHE)
OBJECT_ID      = 2021-035A
CENTER_NAME    = EARTH
REF_FRAME      = TEME
TIME_SYSTEM    = UTC
MEAN_ELEMENT_THEORY = SGP/SGP4

EPOCH          = 2026-02-07T08:52:57.760608
MEAN_MOTION    = 15.59318584
ECCENTRICITY   = .00051547
INCLINATION    = 41.4682
RA_OF_ASC_NODE = 32.4562
ARG_OF_PERICENTER = 20.8908
MEAN_ANOMALY   = 339.2140

EPHEMERIS_TYPE = 0
CLASSIFICATION_TYPE = U
NORAD_CAT_ID   = 48274
ELEMENT_SET_NO = 999
REV_AT_EPOCH   = 27287
BSTAR          = .3139778E-3
MEAN_MOTION_DOT = .25203E-3
MEAN_MOTION_DDOT = 0

CCSDS_OMM_VERS = 2.0
CREATION_DATE  = 
ORIGINATOR     = 

OBJECT_NAME    = ISS (NAUKA)
OBJECT_ID      = 2021-066A
CENTER_NAME    = EARTH
REF_FRAME      = TEME
TIME_SYSTEM    = UTC
MEAN_ELEMENT_THEORY = SGP/SGP4

EPOCH          = 2026-02-07T12:04:05.287008
MEAN_MOTION    = 15.48462076
ECCENTRICITY   = .00110001
INCLINATION    = 51.6315
RA_OF_ASC_NODE = 221.5822
ARG_OF_PERICENTER = 74.6214
MEAN_ANOMALY   = 285.5989

EPHEMERIS_TYPE = 0
CLASSIFICATION_TYPE = U
NORAD_CAT_ID   = 49044
ELEMENT_SET_NO = 999
REV_AT_EPOCH   = 23044
BSTAR          = .2304974E-3
MEAN_MOTION_DOT = .12054E-3
MEAN_MOTION_DDOT = 0

CCSDS_OMM_VERS = 2.0
CREATION_DATE  = 
ORIGINATOR     = 

OBJECT_NAME    = CSS (WENTIAN)
OBJECT_ID      = 2022-085A
CENTER_NAME    = EARTH
REF_FRAME      = TEME
TIME_SYSTEM    = UTC
MEAN_ELEMENT_THEORY = SGP/SGP4

EPOCH          = 2026-02-07T08:52:57.760608
MEAN_MOTION    = 15.59318584
ECCENTRICITY   = .00051547
INCLINATION    = 41.4682
RA_OF_ASC_NODE = 32.4562
ARG_OF_PERICENTER = 20.8908
MEAN_ANOMALY   = 339.2140

EPHEMERIS_TYPE = 0
CLASSIFICATION_TYPE = U
NORAD_CAT_ID   = 53239
ELEMENT_SET_NO = 999
REV_AT_EPOCH   = 17384
BSTAR          = .3139778E-3
MEAN_MOTION_DOT = .25203E-3
MEAN_MOTION_DDOT = 0

CCSDS_OMM_VERS = 2.0
CREATION_DATE  = 
ORIGINATOR     = 

OBJECT_NAME    = CSS (MENGTIAN)
OBJECT_ID      = 2022-143A
CENTER_NAME    = EARTH
REF_FRAME      = TEME
TIME_SYSTEM    = UTC
MEAN_ELEMENT_THEORY = SGP/SGP4

EPOCH          = 2026-02-07T08:52:57.760608
MEAN_MOTION    = 15.59318584
ECCENTRICITY   = .00051547
INCLINATION    = 41.4682
RA_OF_ASC_NODE = 32.4562
ARG_OF_PERICENTER = 20.8908
MEAN_ANOMALY   = 339.2140

EPHEMERIS_TYPE = 0
CLASSIFICATION_TYPE = U
NORAD_CAT_ID   = 54216
ELEMENT_SET_NO = 999
REV_AT_EPOCH   = 15864
BSTAR          = .3139778E-3
MEAN_MOTION_DOT = .25203E-3
MEAN_MOTION_DDOT = 0

CCSDS_OMM_VERS = 2.0
CREATION_DATE  = 
ORIGINATOR     = 

OBJECT_NAME    = PROGRESS-MS 31
OBJECT_ID      = 2025-146A
CENTER_NAME    = EARTH
REF_FRAME      = TEME
TIME_SYSTEM    = UTC
MEAN_ELEMENT_THEORY = SGP/SGP4

EPOCH          = 2026-02-07T12:04:05.287008
MEAN_MOTION    = 15.48462076
ECCENTRICITY   = .00110001
INCLINATION    = 51.6315
RA_OF_ASC_NODE = 221.5822
ARG_OF_PERICENTER = 74.6214
MEAN_ANOMALY   = 285.5989

EPHEMERIS_TYPE = 0
CLASSIFICATION_TYPE = U
NORAD_CAT_ID   = 64751
ELEMENT_SET_NO = 999
REV_AT_EPOCH   = 675
BSTAR          = .2304974E-3
MEAN_MOTION_DOT = .12054E-3
MEAN_MOTION_DDOT = 0

CCSDS_OMM_VERS = 2.0
CREATION_DATE  = 
ORIGINATOR     = 

OBJECT_NAME    = TIANZHOU-9
OBJECT_ID      = 2025-149A
CENTER_NAME    = EARTH
REF_FRAME      = TEME
TIME_SYSTEM    = UTC
MEAN_ELEMENT_THEORY = SGP/SGP4

EPOCH          = 2026-02-07T08:52:57.760608
MEAN_MOTION    = 15.59318584
ECCENTRICITY   = .00051547
INCLINATION    = 41.4682
RA_OF_ASC_NODE = 32.4562
ARG_OF_PERICENTER = 20.8908
MEAN_ANOMALY   = 339.2140

EPHEMERIS_TYPE = 0
CLASSIFICATION_TYPE = U
NORAD_CAT_ID   = 64786
ELEMENT_SET_NO = 999
REV_AT_EPOCH   = 25530
BSTAR          = .3139778E-3
MEAN_MOTION_DOT = .25203E-3
MEAN_MOTION_DDOT = 0

CCSDS_OMM_VERS = 2.0
CREATION_DATE  = 
ORIGINATOR     = 

OBJECT_NAME    = DRAGON CRS-33
OBJECT_ID      = 2025-186A
CENTER_NAME    = EARTH
REF_FRAME      = TEME
TIME_SYSTEM    = UTC
MEAN_ELEMENT_THEORY = SGP/SGP4

EPOCH          = 2026-02-07T12:04:05.287008
MEAN_MOTION    = 15.48462076
ECCENTRICITY   = .00110001
INCLINATION    = 51.6315
RA_OF_ASC_NODE = 221.5822
ARG_OF_PERICENTER = 74.6214
MEAN_ANOMALY   = 285.5989

EPHEMERIS_TYPE = 0
CLASSIFICATION_TYPE = U
NORAD_CAT_ID   = 65304
ELEMENT_SET_NO = 999
REV_AT_EPOCH   = 11
BSTAR          = .2304974E-3
MEAN_MOTION_DOT = .12054E-3
MEAN_MOTION_DDOT = 0

CCSDS_OMM_VERS = 2.0
CREATION_DATE  = 
ORIGINATOR     = 

OBJECT_NAME    = PROGRESS-MS 32
OBJECT_ID      = 2025-204A
CENTER_NAME    = EARTH
REF_FRAME      = TEME
TIME_SYSTEM    = UTC
MEAN_ELEMENT_THEORY = SGP/SGP4

EPOCH          = 2026-02-07T12:04:05.287008
MEAN_MOTION    = 15.48462076
ECCENTRICITY   = .00110001
INCLINATION    = 51.6315
RA_OF_ASC_NODE = 221.5822
ARG_OF_PERICENTER = 74.6214
MEAN_ANOMALY   = 285.5989

EPHEMERIS_TYPE = 0
CLASSIFICATION_TYPE = U
NORAD_CAT_ID   = 65586
ELEMENT_SET_NO = 999
REV_AT_EPOCH   = 27
BSTAR          = .2304974E-3
MEAN_MOTION_DOT = .12054E-3
MEAN_MOTION_DDOT = 0

CCSDS_OMM_VERS = 2.0
CREATION_DATE  = 
ORIGINATOR     = 

OBJECT_NAME    = CYGNUS NG-23
OBJECT_ID      = 2025-208A
CENTER_NAME    = EARTH
REF_FRAME      = TEME
TIME_SYSTEM    = UTC
MEAN_ELEMENT_THEORY = SGP/SGP4

EPOCH          = 2026-02-07T12:04:05.287008
MEAN_MOTION    = 15.48462076
ECCENTRICITY   = .00110001
INCLINATION    = 51.6315
RA_OF_ASC_NODE = 221.5822
ARG_OF_PERICENTER = 74.6214
MEAN_ANOMALY   = 285.5989

EPHEMERIS_TYPE = 0
CLASSIFICATION_TYPE = U
NORAD_CAT_ID   = 65616
ELEMENT_SET_NO = 999
REV_AT_EPOCH   = 22
BSTAR          = .2304974E-3
MEAN_MOTION_DOT = .12054E-3
MEAN_MOTION_DDOT = 0

CCSDS_OMM_VERS = 2.0
CREATION_DATE  = 
ORIGINATOR     = 

OBJECT_NAME    = ISS OBJECT XK
OBJECT_ID      = 1998-067XK
CENTER_NAME    = EARTH
REF_FRAME      = TEME
TIME_SYSTEM    = UTC
MEAN_ELEMENT_THEORY = SGP/SGP4

EPOCH          = 2026-02-07T15:35:13.082208
MEAN_MOTION    = 15.83956581
ECCENTRICITY   = .00035866
INCLINATION    = 51.6229
RA_OF_ASC_NODE = 205.2613
ARG_OF_PERICENTER = 264.8337
MEAN_ANOMALY   = 95.2257

EPHEMERIS_TYPE = 0
CLASSIFICATION_TYPE = U
NORAD_CAT_ID   = 65731
ELEMENT_SET_NO = 999
REV_AT_EPOCH   = 2210
BSTAR          = .12353107E-2
MEAN_MOTION_DOT = .291158E-2
MEAN_MOTION_DDOT = 0

